OBJECT_NAME,OBJECT_ID,EPOCH,MEAN_MOTION,ECCENTRICITY,INCLINATION,RA_OF_ASC_NODE,ARG_OF_PERICENTER,MEAN_ANOMALY,EPHEMERIS_TYPE,CLASSIFICATION_TYPE,NORAD_CAT_ID,ELEMENT_SET_NO,REV_AT_EPOCH,BSTAR,MEAN_MOTION_DOT,MEAN_MOTION_DDOT
INTELSAT 21 (IS-21),2012-045A,2026-06-03T21:53:13.000992,1.00270392,.00021579,0.0365,77.8471,6.8143,78.0052,0,U,38749,999,5039,0,-.273E-5,0
INTELSAT 23 (IS-23),2012-057A,2026-06-03T21:54:35.368704,1.00268667,.00002686,0.0145,302.7177,185.9999,39.2997,0,U,38867,999,4982,0,-.273E-5,0
FM-6,2013-058A,2026-06-03T16:28:30.707328,1.00260986,.00024704,0.0086,41.1711,106.4016,235.3713,0,U,39360,999,4593,0,-.2E-7,0
INTELSAT 30 (IS-30),2014-062A,2026-06-03T21:42:36.518112,1.00270304,.00009031,0.0262,46.7668,8.8948,67.2961,0,U,40271,999,666,0,-.139E-5,0
DIRECTV 14,2014-078B,2026-06-03T21:41:29.126112,1.00271536,.00002215,0.0105,330.7434,173.7364,334.0187,0,U,40333,999,4191,0,-.113E-5,0
DIRECTV 15,2015-026A,2026-06-03T21:40:21.734112,1.00268295,.00001421,0.0174,358.7956,40.9515,74.8062,0,U,40663,999,4033,0,-.9E-6,0
SKY MEXICO-1,2015-026B,2026-06-03T21:47:13.575264,1.00271138,.00023759,0.0176,355.1912,95.8520,49.3222,0,U,40664,999,4032,0,-.222E-5,0
INTELSAT 34 (IS-34),2015-039A,2026-06-03T21:53:57.928992,1.00270144,.00003447,0.0092,337.4190,48.3189,139.6288,0,U,40874,999,3950,0,-.273E-5,0
INTELSAT 31 (IS-31),2016-035A,2026-06-03T19:59:52.023264,1.00270240,.00007895,0.0143,267.3905,341.4440,208.3714,0,U,41581,999,3655,0,-.139E-5,0
INTELSAT 36 (IS-36),2016-053A,2026-06-03T20:46:32.374272,1.00270677,.00016581,0.0119,5.2877,338.8294,288.3347,0,U,41747,999,3582,0,-.12E-6,0
INTELSAT 32E (IS-32E),2017-007B,2026-06-03T21:57:27.594144,1.00272551,.00002853,0.0177,349.6739,352.6574,196.2179,0,U,41945,999,3409,0,-.257E-5,0
INTELSAT 35E (IS-35E),2017-041A,2026-06-03T21:59:57.354720,1.00269746,.00023178,0.0178,9.5519,63.2302,115.0730,0,U,42818,999,3268,0,-.226E-5,0
INTELSAT 37E (IS-37E),2017-059A,2026-06-03T22:04:35.212800,1.00272994,.00026801,0.0258,65.8997,18.6874,120.9483,0,U,42950,999,3193,0,-.128E-5,0
AZERSPACE 2 (IS-38),2018-074A,2026-06-03T22:22:33.595392,1.00271970,.00015755,0.0174,340.2532,97.9559,194.9213,0,U,43632,999,2831,0,.148E-5,0
HORIZONS-3E,2018-074B,2026-06-03T17:49:57.845568,1.00271837,.00006896,0.0147,152.8945,126.1807,49.6128,0,U,43633,999,2820,0,-.18E-6,0
AT&T T-16,2019-034A,2026-06-03T21:40:59.173824,1.00271895,.00003579,0.0268,66.1523,224.5559,186.0372,0,U,44333,999,2550,0,-.103E-5,0
INTELSAT 39 (IS-39),2019-049B,2026-06-03T20:44:40.053408,1.00271363,.00006012,0.0186,323.9850,7.1591,294.2970,0,U,44476,999,2499,0,.45E-6,0
GALAXY 30 (G-30),2020-056C,2026-06-03T18:08:26.075904,1.00272023,.0002472,0.0127,30.6692,40.0890,328.5461,0,U,46114,999,2115,0,.49E-6,0
GALAXY 33 (G-33),2022-128A,2026-06-03T16:23:46.161888,1.00272978,.00020563,0.0123,21.6992,53.4188,289.9794,0,U,54026,999,1360,0,.91E-6,0
GALAXY 34 (G-34),2022-128B,2026-06-03T16:25:01.042176,1.00275256,.00020939,0.0239,343.8859,100.1369,285.3811,0,U,54027,999,1377,0,0,0
GALAXY 31 (G-31),2022-153A,2026-06-03T15:02:54.412224,1.00271883,.00015223,0.0163,28.6540,45.3280,282.8301,0,U,54243,999,699,0,.25E-6,0
GALAXY 32 (G-32),2022-153B,2026-06-03T20:00:59.416128,1.00270822,.00023838,0.0097,353.7552,46.7034,61.0732,0,U,54244,999,1301,0,-.162E-5,0
GALAXY 35 (G-35),2022-170A,2026-06-03T21:43:13.957824,1.00270329,.00022673,0.0141,7.9736,69.3683,47.7250,0,U,54741,999,1276,0,0,0
GALAXY 36 (G-36),2022-170B,2026-06-03T20:01:44.344128,1.00272722,.00029038,0.0175,242.0719,197.6370,24.0211,0,U,54742,999,1264,0,-.173E-5,0
GALAXY 37 (G-37),2023-112A,2026-06-03T21:33:22.403808,1.00273009,.00022706,0.0155,311.1389,124.6295,12.9342,0,U,57493,999,1041,0,.6E-6,0
